XRISM                   
1 57800U 23137A   24234.57095607  .00010395  00000+0  76346-3 0  9996
2 57800  31.0029 316.1516 0009874 135.8862 224.2563 15.02194698 52445
